{"type": "FeatureCollection", "features": [ {"type": "Feature", "properties": {"norad_id": 33905, "name": "COSMOS 2251 DEB", "group": "cosmos-2251-debris", "lat": -53.535411743451384, "lon": -58.302020163376554, "alt_km": 778.8850969363739, "timestamp": "2025-12-08T08:59:01.159342+00:00", "meta": {"OBJECT_NAME": "COSMOS 2251 DEB", "OBJECT_ID": "1993-036DJ", "EPOCH": "2025-12-07T23:31:03.428256", "MEAN_MOTION": 14.3535782, "ECCENTRICITY": 0.00591764, "INCLINATION": 73.8873, "RA_OF_ASC_NODE": 325.4537, "ARG_OF_PERICENTER": 215.8881, "MEAN_ANOMALY": 209.3984, "EPHEMERIS_TYPE": 0, "CLASSIFICATION_TYPE": "U", "NORAD_CAT_ID": 33905, "ELEMENT_SET_NO": 999, "REV_AT_EPOCH": 87619, "BSTAR": 0.00096799557, "MEAN_MOTION_DOT": 2.806e-05, "MEAN_MOTION_DDOT": 0}, "tle": {"line1": "1 33905U 93036DJ  25341.97990079  .00002806  00000+0  96800-3 0  9997", "line2": "2 33905  73.8873 325.4537 0059176 215.8881 209.3984 14.35357820876192"}}, "geometry": {"type": "Point", "coordinates": [-58.302020163376554, -53.535411743451384]}}, {"type": "Feature", "properties": {"norad_id": 33906, "name": "COSMOS 2251 DEB", "group": "cosmos-2251-debris", "lat": -26.268848773611097, "lon": 157.8935918158497, "alt_km": 731.1961474580748, "timestamp": "2025-12-08T08:59:01.159352+00:00", "meta": {"OBJECT_NAME": "COSMOS 2251 DEB", "OBJECT_ID": "1993-036DK", "EPOCH": "2025-12-07T09:38:50.529408", "MEAN_MOTION": 14.56942979, "ECCENTRICITY": 0.00364484, "INCLINATION": 74.0306, "RA_OF_ASC_NODE": 331.6149, "ARG_OF_PERICENTER": 1.9761, "MEAN_ANOMALY": 147.613, "EPHEMERIS_TYPE": 0, "CLASSIFICATION_TYPE": "U", "NORAD_CAT_ID": 33906, "ELEMENT_SET_NO": 999, "REV_AT_EPOCH": 87930, "BSTAR": 0.0033204755, "MEAN_MOTION_DOT": 0.00015051, "MEAN_MOTION_DDOT": 0}, "tle": {"line1": "1 33906U 93036DK  25341.40197372  .00015051  00000+0  33205-2 0  9996", "line2": "2 33906  74.0306 331.6149 0036448   1.9761 147.6130 14.56942979879304"}}, "geometry": {"type": "Point", "coordinates": [157.8935918158497, -26.268848773611097]}}, {"type": "Feature", "properties": {"norad_id": 33907, "name": "COSMOS 2251 DEB", "group": "cosmos-2251-debris", "lat": -54.59113167481372, "lon": -114.7308484169399, "alt_km": 857.8731916263141, "timestamp": "2025-12-08T08:59:01.159363+00:00", "meta": {"OBJECT_NAME": "COSMOS 2251 DEB", "OBJECT_ID": "1993-036DL", "EPOCH": "2025-12-06T23:07:13.105632", "MEAN_MOTION": 14.30429007, "ECCENTRICITY": 0.01126368, "INCLINATION": 74.0704, "RA_OF_ASC_NODE": 44.1429, "ARG_OF_PERICENTER": 101.3359, "MEAN_ANOMALY": 72.7026, "EPHEMERIS_TYPE": 0, "CLASSIFICATION_TYPE": "U", "NORAD_CAT_ID": 33907, "ELEMENT_SET_NO": 999, "REV_AT_EPOCH": 86497, "BSTAR": 0.002682257, "MEAN_MOTION_DOT": 7.46e-05, "MEAN_MOTION_DDOT": 0}, "tle": {"line1": "1 33907U 93036DL  25340.96334613  .00007460  00000+0  26823-2 0  9991", "line2": "2 33907  74.0704  44.1429 0112636 101.3359  72.7026 14.30429007864979"}}, "geometry": {"type": "Point", "coordinates": [-114.7308484169399, -54.59113167481372]}}, {"type": "Feature", "properties": {"norad_id": 33908, "name": "COSMOS 2251 DEB", "group": "cosmos-2251-debris", "lat": -73.73367188341987, "lon": 129.86016689402754, "alt_km": 740.0331165875923, "timestamp": "2025-12-08T08:59:01.159373+00:00", "meta": {"OBJECT_NAME": "COSMOS 2251 DEB", "OBJECT_ID": "1993-036DM", "EPOCH": "2025-12-06T09:37:41.435328", "MEAN_MOTION": 14.07270417, "ECCENTRICITY": 0.02237099, "INCLINATION": 73.8378, "RA_OF_ASC_NODE": 217.0126, "ARG_OF_PERICENTER": 241.6716, "MEAN_ANOMALY": 116.1695, "EPHEMERIS_TYPE": 0, "CLASSIFICATION_TYPE": "U", "NORAD_CAT_ID": 33908, "ELEMENT_SET_NO": 999, "REV_AT_EPOCH": 85384, "BSTAR": 0.0030396285, "MEAN_MOTION_DOT": 6.384e-05, "MEAN_MOTION_DDOT": 0}, "tle": {"line1": "1 33908U 93036DM  25340.40117402  .00006384  00000+0  30396-2 0  9990", "line2": "2 33908  73.8378 217.0126 0223709 241.6716 116.1695 14.07270417853840"}}, "geometry": {"type": "Point", "coordinates": [129.86016689402754, -73.73367188341987]}}, {"type": "Feature", "properties": {"norad_id": 33911, "name": "COSMOS 2251 DEB", "group": "cosmos-2251-debris", "lat": 56.82410405890082, "lon": -163.7794557176931, "alt_km": 634.2799674913358, "timestamp": "2025-12-08T08:59:01.159388+00:00", "meta": {"OBJECT_NAME": "COSMOS 2251 DEB", "OBJECT_ID": "1993-036DQ", "EPOCH": "2025-12-07T19:45:04.756608", "MEAN_MOTION": 14.74651344, "ECCENTRICITY": 0.00143764, "INCLINATION": 74.0895, "RA_OF_ASC_NODE": 171.4252, "ARG_OF_PERICENTER": 114.631, "MEAN_ANOMALY": 260.2936, "EPHEMERIS_TYPE": 0, "CLASSIFICATION_TYPE": "U", "NORAD_CAT_ID": 33911, "ELEMENT_SET_NO": 999, "REV_AT_EPOCH": 88572, "BSTAR": 0.003369383, "MEAN_MOTION_DOT": 0.00022567, "MEAN_MOTION_DDOT": 0}, "tle": {"line1": "1 33911U 93036DQ  25341.82297172  .00022567  00000+0  33694-2 0  9999", "line2": "2 33911  74.0895 171.4252 0014376 114.6310 260.2936 14.74651344885728"}}, "geometry": {"type": "Point", "coordinates": [-163.7794557176931, 56.82410405890082]}}, {"type": "Feature", "properties": {"norad_id": 33912, "name": "COSMOS 2251 DEB", "group": "cosmos-2251-debris", "lat": -50.521109835929245, "lon": 177.6090381228816, "alt_km": 719.0478058820327, "timestamp": "2025-12-08T08:59:01.159399+00:00", "meta": {"OBJECT_NAME": "COSMOS 2251 DEB", "OBJECT_ID": "1993-036DR", "EPOCH": "2025-12-07T23:36:59.155200", "MEAN_MOTION": 14.51854924, "ECCENTRICITY": 0.00115449, "INCLINATION": 74.0332, "RA_OF_ASC_NODE": 198.6832, "ARG_OF_PERICENTER": 277.5116, "MEAN_ANOMALY": 149.9449, "EPHEMERIS_TYPE": 0, "CLASSIFICATION_TYPE": "U", "NORAD_CAT_ID": 33912, "ELEMENT_SET_NO": 999, "REV_AT_EPOCH": 88364, "BSTAR": 0.00093284269, "MEAN_MOTION_DOT": 3.734e-05, "MEAN_MOTION_DDOT": 0}, "tle": {"line1": "1 33912U 93036DR  25341.98401800  .00003734  00000+0  93284-3 0  9999", "line2": "2 33912  74.0332 198.6832 0011544 277.5116 149.9449 14.51854924883642"}}, "geometry": {"type": "Point", "coordinates": [177.6090381228816, -50.521109835929245]}}, {"type": "Feature", "properties": {"norad_id": 33913, "name": "COSMOS 2251 DEB", "group": "cosmos-2251-debris", "lat": 73.53806682243001, "lon": -92.50400082020357, "alt_km": 753.1389296422585, "timestamp": "2025-12-08T08:59:01.159409+00:00", "meta": {"OBJECT_NAME": "COSMOS 2251 DEB", "OBJECT_ID": "1993-036DS", "EPOCH": "2025-12-07T23:13:07.758624", "MEAN_MOTION": 14.48457617, "ECCENTRICITY": 0.00481584, "INCLINATION": 74.0335, "RA_OF_ASC_NODE": 192.5858, "ARG_OF_PERICENTER": 296.0503, "MEAN_ANOMALY": 188.9348, "EPHEMERIS_TYPE": 0, "CLASSIFICATION_TYPE": "U", "NORAD_CAT_ID": 33913, "ELEMENT_SET_NO": 999, "REV_AT_EPOCH": 88388, "BSTAR": 0.00071687818, "MEAN_MOTION_DOT": 2.7e-05, "MEAN_MOTION_DDOT": 0}, "tle": {"line1": "1 33913U 93036DS  25341.96745091  .00002700  00000+0  71688-3 0  9997", "line2": "2 33913  74.0335 192.5858 0048158 296.0503 188.9348 14.48457617883885"}}, "geometry": {"type": "Point", "coordinates": [-92.50400082020357, 73.53806682243001]}}, {"type": "Feature", "properties": {"norad_id": 33914, "name": "COSMOS 2251 DEB", "group": "cosmos-2251-debris", "lat": 4.015596157895099, "lon": -158.85794335826262, "alt_km": 845.7694846438553, "timestamp": "2025-12-08T08:59:01.159419+00:00", "meta": {"OBJECT_NAME": "COSMOS 2251 DEB", "OBJECT_ID": "1993-036DT", "EPOCH": "2025-12-07T20:43:16.965984", "MEAN_MOTION": 13.71979108, "ECCENTRICITY": 0.03015928, "INCLINATION": 74.0914, "RA_OF_ASC_NODE": 23.1309, "ARG_OF_PERICENTER": 127.3511, "MEAN_ANOMALY": 43.2002, "EPHEMERIS_TYPE": 0, "CLASSIFICATION_TYPE": "U", "NORAD_CAT_ID": 33914, "ELEMENT_SET_NO": 999, "REV_AT_EPOCH": 84014, "BSTAR": 0.00082047113, "MEAN_MOTION_DOT": 1.01e-05, "MEAN_MOTION_DDOT": 0}, "tle": {"line1": "1 33914U 93036DT  25341.86339081  .00001010  00000+0  82047-3 0  9999", "line2": "2 33914  74.0914  23.1309 0301592 127.3511  43.2002 13.71979108840149"}}, "geometry": {"type": "Point", "coordinates": [-158.85794335826262, 4.015596157895099]}}, {"type": "Feature", "properties": {"norad_id": 33915, "name": "COSMOS 2251 DEB", "group": "cosmos-2251-debris", "lat": 21.79184247293792, "lon": 48.67595723294289, "alt_km": 802.8642636088089, "timestamp": "2025-12-08T08:59:01.159429+00:00", "meta": {"OBJECT_NAME": "COSMOS 2251 DEB", "OBJECT_ID": "1993-036DU", "EPOCH": "2025-12-07T15:03:16.441632", "MEAN_MOTION": 14.35065395, "ECCENTRICITY": 0.01047209, "INCLINATION": 74.0444, "RA_OF_ASC_NODE": 43.4764, "ARG_OF_PERICENTER": 137.3766, "MEAN_ANOMALY": 348.6825, "EPHEMERIS_TYPE": 0, "CLASSIFICATION_TYPE": "U", "NORAD_CAT_ID": 33915, "ELEMENT_SET_NO": 999, "REV_AT_EPOCH": 87684, "BSTAR": 0.00076430676, "MEAN_MOTION_DOT": 2.294e-05, "MEAN_MOTION_DDOT": 0}, "tle": {"line1": "1 33915U 93036DU  25341.62727363  .00002294  00000+0  76431-3 0  9993", "line2": "2 33915  74.0444  43.4764 0104720 137.3766 348.6825 14.35065395876841"}}, "geometry": {"type": "Point", "coordinates": [48.67595723294289, 21.79184247293792]}}, {"type": "Feature", "properties": {"norad_id": 33916, "name": "COSMOS 2251 DEB", "group": "cosmos-2251-debris", "lat": 49.061824505355155, "lon": -151.48464552603377, "alt_km": 1003.1592002356128, "timestamp": "2025-12-08T08:59:01.159440+00:00", "meta": {"OBJECT_NAME": "COSMOS 2251 DEB", "OBJECT_ID": "1993-036DV", "EPOCH": "2025-12-07T22:40:56.113824", "MEAN_MOTION": 13.68604913, "ECCENTRICITY": 0.03254443, "INCLINATION": 74.053, "RA_OF_ASC_NODE": 48.4665, "ARG_OF_PERICENTER": 221.6262, "MEAN_ANOMALY": 316.272, "EPHEMERIS_TYPE": 0, "CLASSIFICATION_TYPE": "U", "NORAD_CAT_ID": 33916, "ELEMENT_SET_NO": 999, "REV_AT_EPOCH": 83825, "BSTAR": 0.00079084583, "MEAN_MOTION_DOT": 9.59e-06, "MEAN_MOTION_DDOT": 0}, "tle": {"line1": "1 33916U 93036DV  25341.94509391  .00000959  00000+0  79085-3 0  9992", "line2": "2 33916  74.0530  48.4665 0325444 221.6262 316.2720 13.68604913838257"}}, "geometry": {"type": "Point", "coordinates": [-151.48464552603377, 49.061824505355155]}}]}